{"type": "FeatureCollection", "features": [ {"type": "Feature", "properties": {"norad_id": 66535, "name": "STARLINK-35514", "group": "last-30-days", "lat": -24.29244587856519, "lon": -102.42096942771846, "alt_km": 417.32680038962826, "timestamp": "2025-12-13T15:35:10.875882+00:00", "meta": {"OBJECT_NAME": "STARLINK-35514", "OBJECT_ID": "2025-265V", "EPOCH": "2025-12-12T20:00:01.999872", "MEAN_MOTION": 15.5068174, "ECCENTRICITY": 0.00017163, "INCLINATION": 43.0006, "RA_OF_ASC_NODE": 53.3826, "ARG_OF_PERICENTER": 267.273, "MEAN_ANOMALY": 69.1108, "EPHEMERIS_TYPE": 0, "CLASSIFICATION_TYPE": "U", "NORAD_CAT_ID": 66535, "ELEMENT_SET_NO": 999, "REV_AT_EPOCH": 501, "BSTAR": -0.0034311566, "MEAN_MOTION_DOT": -0.00197371, "MEAN_MOTION_DDOT": 0}, "tle": {"line1": "1 66535U 25265V   25346.83335648 -.00197371  00000+0 -34312-2 0  9999", "line2": "2 66535  43.0006  53.3826 0001716 267.2730  69.1108 15.50681740  5017"}}, "geometry": {"type": "Point", "coordinates": [-102.42096942771846, -24.29244587856519]}}, {"type": "Feature", "properties": {"norad_id": 66536, "name": "STARLINK-35640", "group": "last-30-days", "lat": -25.496733241279316, "lon": -100.6142855476408, "alt_km": 416.9521452226045, "timestamp": "2025-12-13T15:35:10.875893+00:00", "meta": {"OBJECT_NAME": "STARLINK-35640", "OBJECT_ID": "2025-265W", "EPOCH": "2025-12-12T20:00:01.999872", "MEAN_MOTION": 15.50584065, "ECCENTRICITY": 0.00014569, "INCLINATION": 43.0005, "RA_OF_ASC_NODE": 53.378, "ARG_OF_PERICENTER": 271.3905, "MEAN_ANOMALY": 66.8684, "EPHEMERIS_TYPE": 0, "CLASSIFICATION_TYPE": "U", "NORAD_CAT_ID": 66536, "ELEMENT_SET_NO": 999, "REV_AT_EPOCH": 499, "BSTAR": -0.00024258616, "MEAN_MOTION_DOT": -0.00014549, "MEAN_MOTION_DDOT": 0}, "tle": {"line1": "1 66536U 25265W   25346.83335648 -.00014549  00000+0 -24259-3 0  9995", "line2": "2 66536  43.0005  53.3780 0001456 271.3905  66.8684 15.50584065  4998"}}, "geometry": {"type": "Point", "coordinates": [-100.6142855476408, -25.496733241279316]}}, {"type": "Feature", "properties": {"norad_id": 66537, "name": "STARLINK-35582", "group": "last-30-days", "lat": -26.617960910767366, "lon": -98.86680303707462, "alt_km": 417.2222214527819, "timestamp": "2025-12-13T15:35:10.875904+00:00", "meta": {"OBJECT_NAME": "STARLINK-35582", "OBJECT_ID": "2025-265X", "EPOCH": "2025-12-12T20:00:01.999872", "MEAN_MOTION": 15.50553518, "ECCENTRICITY": 0.00015818, "INCLINATION": 43.0005, "RA_OF_ASC_NODE": 53.3734, "ARG_OF_PERICENTER": 273.3701, "MEAN_ANOMALY": 66.9871, "EPHEMERIS_TYPE": 0, "CLASSIFICATION_TYPE": "U", "NORAD_CAT_ID": 66537, "ELEMENT_SET_NO": 999, "REV_AT_EPOCH": 501, "BSTAR": -0.00076196043, "MEAN_MOTION_DOT": -0.00044747, "MEAN_MOTION_DDOT": 0}, "tle": {"line1": "1 66537U 25265X   25346.83335648 -.00044747  00000+0 -76196-3 0  9996", "line2": "2 66537  43.0005  53.3734 0001581 273.3701  66.9871 15.50553518  5015"}}, "geometry": {"type": "Point", "coordinates": [-98.86680303707462, -26.617960910767366]}}, {"type": "Feature", "properties": {"norad_id": 66538, "name": "STARLINK-35577", "group": "last-30-days", "lat": -27.70676426753204, "lon": -97.10403799930891, "alt_km": 417.0721101178533, "timestamp": "2025-12-13T15:35:10.875915+00:00", "meta": {"OBJECT_NAME": "STARLINK-35577", "OBJECT_ID": "2025-265Y", "EPOCH": "2025-12-12T20:00:01.999872", "MEAN_MOTION": 15.50682829, "ECCENTRICITY": 0.00014017, "INCLINATION": 43.0007, "RA_OF_ASC_NODE": 53.3685, "ARG_OF_PERICENTER": 263.6188, "MEAN_ANOMALY": 78.3921, "EPHEMERIS_TYPE": 0, "CLASSIFICATION_TYPE": "U", "NORAD_CAT_ID": 66538, "ELEMENT_SET_NO": 999, "REV_AT_EPOCH": 501, "BSTAR": -0.0016316176, "MEAN_MOTION_DOT": -0.00095256, "MEAN_MOTION_DDOT": 0}, "tle": {"line1": "1 66538U 25265Y   25346.83335648 -.00095256  00000+0 -16316-2 0  9995", "line2": "2 66538  43.0007  53.3685 0001401 263.6188  78.3921 15.50682829  5016"}}, "geometry": {"type": "Point", "coordinates": [-97.10403799930891, -27.70676426753204]}}, {"type": "Feature", "properties": {"norad_id": 66539, "name": "STARLINK-35697", "group": "last-30-days", "lat": -28.704224384187665, "lon": -95.4230998695911, "alt_km": 417.4293408258991, "timestamp": "2025-12-13T15:35:10.875925+00:00", "meta": {"OBJECT_NAME": "STARLINK-35697", "OBJECT_ID": "2025-265Z", "EPOCH": "2025-12-12T20:00:01.999872", "MEAN_MOTION": 15.50755011, "ECCENTRICITY": 0.00016772, "INCLINATION": 43.0006, "RA_OF_ASC_NODE": 53.3632, "ARG_OF_PERICENTER": 257.5045, "MEAN_ANOMALY": 86.4672, "EPHEMERIS_TYPE": 0, "CLASSIFICATION_TYPE": "U", "NORAD_CAT_ID": 66539, "ELEMENT_SET_NO": 999, "REV_AT_EPOCH": 501, "BSTAR": -0.0043376974, "MEAN_MOTION_DOT": -0.00248472, "MEAN_MOTION_DDOT": 0}, "tle": {"line1": "1 66539U 25265Z   25346.83335648 -.00248472  00000+0 -43377-2 0  9993", "line2": "2 66539  43.0006  53.3632 0001677 257.5045  86.4672 15.50755011  5014"}}, "geometry": {"type": "Point", "coordinates": [-95.4230998695911, -28.704224384187665]}}, {"type": "Feature", "properties": {"norad_id": 66540, "name": "STARLINK-35818", "group": "last-30-days", "lat": -29.828856281859224, "lon": -93.44202071395657, "alt_km": 416.84820894714176, "timestamp": "2025-12-13T15:35:10.875934+00:00", "meta": {"OBJECT_NAME": "STARLINK-35818", "OBJECT_ID": "2025-265AA", "EPOCH": "2025-12-12T20:00:01.999872", "MEAN_MOTION": 15.5061765, "ECCENTRICITY": 0.00017342, "INCLINATION": 43.0005, "RA_OF_ASC_NODE": 53.3591, "ARG_OF_PERICENTER": 266.2027, "MEAN_ANOMALY": 79.6661, "EPHEMERIS_TYPE": 0, "CLASSIFICATION_TYPE": "U", "NORAD_CAT_ID": 66540, "ELEMENT_SET_NO": 999, "REV_AT_EPOCH": 501, "BSTAR": -0.00025048067, "MEAN_MOTION_DOT": -0.00015029, "MEAN_MOTION_DDOT": 0}, "tle": {"line1": "1 66540U 25265AA  25346.83335648 -.00015029  00000+0 -25048-3 0  9991", "line2": "2 66540  43.0005  53.3591 0001734 266.2027  79.6661 15.50617650  5018"}}, "geometry": {"type": "Point", "coordinates": [-93.44202071395657, -29.828856281859224]}}, {"type": "Feature", "properties": {"norad_id": 66541, "name": "STARLINK-35796", "group": "last-30-days", "lat": -26.9230067828058, "lon": -98.38141062253152, "alt_km": 428.7418246714533, "timestamp": "2025-12-13T15:35:10.875944+00:00", "meta": {"OBJECT_NAME": "STARLINK-35796", "OBJECT_ID": "2025-265AB", "EPOCH": "2025-12-12T20:00:01.999872", "MEAN_MOTION": 15.4998802, "ECCENTRICITY": 0.00013725, "INCLINATION": 43.0004, "RA_OF_ASC_NODE": 53.353, "ARG_OF_PERICENTER": 262.3253, "MEAN_ANOMALY": 85.4321, "EPHEMERIS_TYPE": 0, "CLASSIFICATION_TYPE": "U", "NORAD_CAT_ID": 66541, "ELEMENT_SET_NO": 999, "REV_AT_EPOCH": 501, "BSTAR": -0.040134405, "MEAN_MOTION_DOT": -0.02052733, "MEAN_MOTION_DDOT": 0}, "tle": {"line1": "1 66541U 25265AB  25346.83335648 -.02052733  00000+0 -40134-1 0  9998", "line2": "2 66541  43.0004  53.3530 0001372 262.3253  85.4321 15.49988020  5015"}}, "geometry": {"type": "Point", "coordinates": [-98.38141062253152, -26.9230067828058]}}, {"type": "Feature", "properties": {"norad_id": 66542, "name": "STARLINK-35833", "group": "last-30-days", "lat": -31.744036483332366, "lon": -89.8261172512684, "alt_km": 417.66533446458016, "timestamp": "2025-12-13T15:35:10.875954+00:00", "meta": {"OBJECT_NAME": "STARLINK-35833", "OBJECT_ID": "2025-265AC", "EPOCH": "2025-12-12T20:00:01.999872", "MEAN_MOTION": 15.50700775, "ECCENTRICITY": 0.00016903, "INCLINATION": 43.0006, "RA_OF_ASC_NODE": 53.3493, "ARG_OF_PERICENTER": 264.8463, "MEAN_ANOMALY": 84.9443, "EPHEMERIS_TYPE": 0, "CLASSIFICATION_TYPE": "U", "NORAD_CAT_ID": 66542, "ELEMENT_SET_NO": 999, "REV_AT_EPOCH": 501, "BSTAR": -0.0038567541, "MEAN_MOTION_DOT": -0.00221291, "MEAN_MOTION_DDOT": 0}, "tle": {"line1": "1 66542U 25265AC  25346.83335648 -.00221291  00000+0 -38568-2 0  9993", "line2": "2 66542  43.0006  53.3493 0001690 264.8463  84.9443 15.50700775  5019"}}, "geometry": {"type": "Point", "coordinates": [-89.8261172512684, -31.744036483332366]}}, {"type": "Feature", "properties": {"norad_id": 66543, "name": "STARLINK-35315", "group": "last-30-days", "lat": -32.714547864714866, "lon": -87.8548376066443, "alt_km": 417.7052562781373, "timestamp": "2025-12-13T15:35:10.875964+00:00", "meta": {"OBJECT_NAME": "STARLINK-35315", "OBJECT_ID": "2025-265AD", "EPOCH": "2025-12-12T20:00:01.999872", "MEAN_MOTION": 15.50688941, "ECCENTRICITY": 0.00014666, "INCLINATION": 43.0006, "RA_OF_ASC_NODE": 53.3436, "ARG_OF_PERICENTER": 258.6431, "MEAN_ANOMALY": 93.0718, "EPHEMERIS_TYPE": 0, "CLASSIFICATION_TYPE": "U", "NORAD_CAT_ID": 66543, "ELEMENT_SET_NO": 999, "REV_AT_EPOCH": 490, "BSTAR": -0.0035543137, "MEAN_MOTION_DOT": -0.0020431, "MEAN_MOTION_DDOT": 0}, "tle": {"line1": "1 66543U 25265AD  25346.83335648 -.00204310  00000+0 -35543-2 0  9997", "line2": "2 66543  43.0006  53.3436 0001466 258.6431  93.0718 15.50688941  4907"}}, "geometry": {"type": "Point", "coordinates": [-87.8548376066443, -32.714547864714866]}}, {"type": "Feature", "properties": {"norad_id": 66544, "name": "STARLINK-35728", "group": "last-30-days", "lat": -33.66091596893513, "lon": -85.82251005783145, "alt_km": 417.61022859757213, "timestamp": "2025-12-13T15:35:10.875976+00:00", "meta": {"OBJECT_NAME": "STARLINK-35728", "OBJECT_ID": "2025-265AE", "EPOCH": "2025-12-12T20:00:01.999872", "MEAN_MOTION": 15.506615, "ECCENTRICITY": 0.00015219, "INCLINATION": 43.0004, "RA_OF_ASC_NODE": 53.3391, "ARG_OF_PERICENTER": 260.4958, "MEAN_ANOMALY": 93.1502, "EPHEMERIS_TYPE": 0, "CLASSIFICATION_TYPE": "U", "NORAD_CAT_ID": 66544, "ELEMENT_SET_NO": 999, "REV_AT_EPOCH": 501, "BSTAR": -0.0028306255, "MEAN_MOTION_DOT": -0.00163463, "MEAN_MOTION_DDOT": 0}, "tle": {"line1": "1 66544U 25265AE  25346.83335648 -.00163463  00000+0 -28306-2 0  9990", "line2": "2 66544  43.0004  53.3391 0001521 260.4958  93.1502 15.50661500  5010"}}, "geometry": {"type": "Point", "coordinates": [-85.82251005783145, -33.66091596893513]}}]}